{
  "type": "FeatureCollection",
  "features": [
    {
      "type": "Feature",
      "properties": {
        "norad_id": 33886,
        "name": "IRIDIUM 33 DEB",
        "group": "iridium-33-debris",
        "lat": 70.09705647296688,
        "lon": 77.0262704155955,
        "alt_km": 773.5292099532126,
        "timestamp": "2025-12-13T08:49:16.076665+00:00",
        "meta_object_name": "IRIDIUM 33 DEB",
        "meta_object_id": "1997-051BF",
        "meta_epoch": "2025-12-12T23:15:49.741344",
        "meta_mean_motion": 14.36052453,
        "meta_eccentricity": 0.00123207,
        "meta_inclination": 86.383,
        "meta_ra_of_asc_node": 67.1322,
        "meta_arg_of_pericenter": 241.1892,
        "meta_mean_anomaly": 291.8704,
        "meta_ephemeris_type": 0,
        "meta_classification_type": "U",
        "meta_norad_cat_id": 33886,
        "meta_element_set_no": 999,
        "meta_rev_at_epoch": 88055,
        "meta_bstar": 0.00029940712,
        "meta_mean_motion_dot": 8.9e-06,
        "meta_mean_motion_ddot": 0,
        "tle_line1": "1 33886U 97051BF  25346.96932571  .00000890  00000+0  29941-3 0  9996",
        "tle_line2": "2 33886  86.3830  67.1322 0012320 241.1892 291.8704 14.36052453880554"
      },
      "geometry": {
        "type": "Point",
        "coordinates": [
          77.0262704155955,
          70.09705647296688
        ]
      }
    },
    {
      "type": "Feature",
      "properties": {
        "norad_id": 33887,
        "name": "IRIDIUM 33 DEB",
        "group": "iridium-33-debris",
        "lat": 9.2660755093014,
        "lon": 3.725999795801934,
        "alt_km": 772.0773214802484,
        "timestamp": "2025-12-13T08:49:16.076676+00:00",
        "meta_object_name": "IRIDIUM 33 DEB",
        "meta_object_id": "1997-051BG",
        "meta_epoch": "2025-12-13T00:33:18.560736",
        "meta_mean_motion": 14.37221293,
        "meta_eccentricity": 0.00044619,
        "meta_inclination": 86.3045,
        "meta_ra_of_asc_node": 3.2702,
        "meta_arg_of_pericenter": 225.4093,
        "meta_mean_anomaly": 163.0855,
        "meta_ephemeris_type": 0,
        "meta_classification_type": "U",
        "meta_norad_cat_id": 33887,
        "meta_element_set_no": 999,
        "meta_rev_at_epoch": 88169,
        "meta_bstar": 0.00021319946,
        "meta_mean_motion_dot": 6.54e-06,
        "meta_mean_motion_ddot": 0,
        "tle_line1": "1 33887U 97051BG  25347.02313149  .00000654  00000+0  21320-3 0  9990",
        "tle_line2": "2 33887  86.3045   3.2702 0004461 225.4093 163.0855 14.37221293881695"
      },
      "geometry": {
        "type": "Point",
        "coordinates": [
          3.725999795801934,
          9.2660755093014
        ]
      }
    },
    {
      "type": "Feature",
      "properties": {
        "norad_id": 33953,
        "name": "IRIDIUM 33 DEB",
        "group": "iridium-33-debris",
        "lat": -84.47088538976192,
        "lon": -85.71100080510305,
        "alt_km": 728.3106615973729,
        "timestamp": "2025-12-13T08:49:16.076686+00:00",
        "meta_object_name": "IRIDIUM 33 DEB",
        "meta_object_id": "1997-051BN",
        "meta_epoch": "2025-12-12T22:30:39.579840",
        "meta_mean_motion": 14.5533028,
        "meta_eccentricity": 0.00183814,
        "meta_inclination": 86.3844,
        "meta_ra_of_asc_node": 53.6932,
        "meta_arg_of_pericenter": 102.2717,
        "meta_mean_anomaly": 74.2269,
        "meta_ephemeris_type": 0,
        "meta_classification_type": "U",
        "meta_norad_cat_id": 33953,
        "meta_element_set_no": 999,
        "meta_rev_at_epoch": 88306,
        "meta_bstar": 0.0017430129,
        "meta_mean_motion_dot": 7.597e-05,
        "meta_mean_motion_ddot": 0,
        "tle_line1": "1 33953U 97051BN  25346.93795810  .00007597  00000+0  17430-2 0  9991",
        "tle_line2": "2 33953  86.3844  53.6932 0018381 102.2717  74.2269 14.55330280883063"
      },
      "geometry": {
        "type": "Point",
        "coordinates": [
          -85.71100080510305,
          -84.47088538976192
        ]
      }
    },
    {
      "type": "Feature",
      "properties": {
        "norad_id": 33960,
        "name": "IRIDIUM 33 DEB",
        "group": "iridium-33-debris",
        "lat": 42.28585215717114,
        "lon": 105.80162105688042,
        "alt_km": 608.296330190653,
        "timestamp": "2025-12-13T08:49:16.076698+00:00",
        "meta_object_name": "IRIDIUM 33 DEB",
        "meta_object_id": "1997-051BV",
        "meta_epoch": "2025-12-12T21:09:23.730624",
        "meta_mean_motion": 14.85208094,
        "meta_eccentricity": 0.00074546,
        "meta_inclination": 86.2531,
        "meta_ra_of_asc_node": 289.4477,
        "meta_arg_of_pericenter": 62.3562,
        "meta_mean_anomaly": 358.1237,
        "meta_ephemeris_type": 0,
        "meta_classification_type": "U",
        "meta_norad_cat_id": 33960,
        "meta_element_set_no": 999,
        "meta_rev_at_epoch": 88869,
        "meta_bstar": 0.0044724749,
        "meta_mean_motion_dot": 0.00038539,
        "meta_mean_motion_ddot": 0,
        "tle_line1": "1 33960U 97051BV  25346.88152466  .00038539  00000+0  44725-2 0  9994",
        "tle_line2": "2 33960  86.2531 289.4477 0007454  62.3562 358.1237 14.85208094888692"
      },
      "geometry": {
        "type": "Point",
        "coordinates": [
          105.80162105688042,
          42.28585215717114
        ]
      }
    },
    {
      "type": "Feature",
      "properties": {
        "norad_id": 33966,
        "name": "IRIDIUM 33 DEB",
        "group": "iridium-33-debris",
        "lat": 18.6738522380135,
        "lon": 46.97960117744293,
        "alt_km": 732.4765087354644,
        "timestamp": "2025-12-13T08:49:16.076709+00:00",
        "meta_object_name": "IRIDIUM 33 DEB",
        "meta_object_id": "1997-051CB",
        "meta_epoch": "2025-12-12T23:20:44.182176",
        "meta_mean_motion": 14.49596242,
        "meta_eccentricity": 0.0007444,
        "meta_inclination": 86.3924,
        "meta_ra_of_asc_node": 45.9272,
        "meta_arg_of_pericenter": 187.2818,
        "meta_mean_anomaly": 292.5256,
        "meta_ephemeris_type": 0,
        "meta_classification_type": "U",
        "meta_norad_cat_id": 33966,
        "meta_element_set_no": 999,
        "meta_rev_at_epoch": 88445,
        "meta_bstar": 0.00084564855,
        "meta_mean_motion_dot": 3.266e-05,
        "meta_mean_motion_ddot": 0,
        "tle_line1": "1 33966U 97051CB  25346.97273359  .00003266  00000+0  84565-3 0  9991",
        "tle_line2": "2 33966  86.3924  45.9272 0007444 187.2818 292.5256 14.49596242884450"
      },
      "geometry": {
        "type": "Point",
        "coordinates": [
          46.97960117744293,
          18.6738522380135
        ]
      }
    },
    {
      "type": "Feature",
      "properties": {
        "norad_id": 34071,
        "name": "IRIDIUM 33 DEB",
        "group": "iridium-33-debris",
        "lat": 83.71357664411089,
        "lon": 53.01093130755438,
        "alt_km": 713.3619138240947,
        "timestamp": "2025-12-13T08:49:16.076719+00:00",
        "meta_object_name": "IRIDIUM 33 DEB",
        "meta_object_id": "1997-051CE",
        "meta_epoch": "2025-12-13T00:08:49.540416",
        "meta_mean_motion": 14.49467237,
        "meta_eccentricity": 0.00099317,
        "meta_inclination": 86.3461,
        "meta_ra_of_asc_node": 17.7126,
        "meta_arg_of_pericenter": 106.9407,
        "meta_mean_anomaly": 253.2886,
        "meta_ephemeris_type": 0,
        "meta_classification_type": "U",
        "meta_norad_cat_id": 34071,
        "meta_element_set_no": 999,
        "meta_rev_at_epoch": 88338,
        "meta_bstar": 0.0009115766,
        "meta_mean_motion_dot": 3.511e-05,
        "meta_mean_motion_ddot": 0,
        "tle_line1": "1 34071U 97051CE  25347.00612894  .00003511  00000+0  91158-3 0  9994",
        "tle_line2": "2 34071  86.3461  17.7126 0009931 106.9407 253.2886 14.49467237883389"
      },
      "geometry": {
        "type": "Point",
        "coordinates": [
          53.01093130755438,
          83.71357664411089
        ]
      }
    },
    {
      "type": "Feature",
      "properties": {
        "norad_id": 34077,
        "name": "IRIDIUM 33 DEB",
        "group": "iridium-33-debris",
        "lat": -38.09777093280627,
        "lon": 48.3904577894041,
        "alt_km": 682.202147630629,
        "timestamp": "2025-12-13T08:49:16.076730+00:00",
        "meta_object_name": "IRIDIUM 33 DEB",
        "meta_object_id": "1997-051CL",
        "meta_epoch": "2025-12-12T17:09:47.187072",
        "meta_mean_motion": 14.64840675,
        "meta_eccentricity": 0.00102139,
        "meta_inclination": 86.3861,
        "meta_ra_of_asc_node": 51.518,
        "meta_arg_of_pericenter": 39.1914,
        "meta_mean_anomaly": 84.5798,
        "meta_ephemeris_type": 0,
        "meta_classification_type": "U",
        "meta_norad_cat_id": 34077,
        "meta_element_set_no": 999,
        "meta_rev_at_epoch": 88332,
        "meta_bstar": 0.0018853385,
        "meta_mean_motion_dot": 0.00010098,
        "meta_mean_motion_ddot": 0,
        "tle_line1": "1 34077U 97051CL  25346.71512948  .00010098  00000+0  18853-2 0  9994",
        "tle_line2": "2 34077  86.3861  51.5180 0010213  39.1914  84.5798 14.64840675883329"
      },
      "geometry": {
        "type": "Point",
        "coordinates": [
          48.3904577894041,
          -38.09777093280627
        ]
      }
    }
  ]
}